ONEWEB-0584             
1 54651U 22166K   23168.53284843 -.00000241  00000+0 -61440-3 0  9991
2 54651  87.9193 102.1664 0002379  87.8489 272.2917 13.21824345 26770
ONEWEB-0585             
1 54652U 22166L   23168.78308423  .00000949  00000+0  22673-2 0  9997
2 54652  87.9232 102.1097 0001821  74.7212 285.4123 13.21819660 26819
ONEWEB-0586             
1 54653U 22166M   23168.34151964  .00000036  00000+0  55718-4 0  9991
2 54653  87.9243 102.2545 0002398  84.4287 275.7120 13.21826544 26752
ONEWEB-0587             
1 54654U 22166N   23168.91668981  .00000013  00000+0  00000+0 0  9991
2 54654  87.9470 102.0584 0002815  93.5914 338.6177 13.29781014 27446
ONEWEB-0589             
1 54655U 22166P   23168.33940482 -.00000020  00000+0 -80375-4 0  9995
2 54655  87.9244 102.2019 0002890  98.8559 261.2902 13.21823422 26771
ONEWEB-0590             
1 54656U 22166Q   23168.51602937  .00000010  00000+0 -68580-5 0  9999
2 54656  87.9256 102.1637 0001835  79.4703 280.6638 13.21829380 26785
ONEWEB-0591             
1 54657U 22166R   23168.75574199  .00000012  00000+0 -13716-5 0  9997
2 54657  87.9244 102.1209 0002151  83.9237 276.2142 13.21827794 26847
ONEWEB-0592             
1 54658U 22166S   23168.75784178 -.00000032  00000+0 -10890-3 0  9999
2 54658  87.9318 102.0983 0002140  87.9599 272.1780 13.21822751 26729
ONEWEB-0593             
1 54659U 22166T   23168.32679143  .00000060  00000+0  11284-3 0  9995
2 54659  87.9243 102.2020 0002267  85.6637 274.4755 13.21828135 26773
ONEWEB-0594             
1 54660U 22166U   23168.34570337 -.00000009  00000+0 -54009-4 0  9992
2 54660  87.9318 102.1725 0002215  74.1859 285.9519 13.21828812 26790
ONEWEB-0595             
1 54661U 22166V   23168.54967787 -.00000039  00000+0 -12563-3 0  9995
2 54661  87.9166 102.1583 0001958  75.5669 284.5682 13.21823848 26791
ONEWEB-0596             
1 54662U 22166W   23168.75154216  .00000021  00000+0  18931-4 0  9999
2 54662  87.9195 102.1182 0002211  91.5030 268.6357 13.21827743 26826
ONEWEB-0597             
1 54663U 22166X   23168.80830666  .00000005  00000+0 -19676-4 0  9996
2 54663  87.9188 102.1082 0002494  83.9362 276.2056 13.21828688 26835
ONEWEB-0600             
1 54664U 22166Y   23168.78938733  .00000019  00000+0  15428-4 0  9993
2 54664  87.9244 102.1499 0002360  81.3211 278.8190 13.21827927 26807
ONEWEB-0601             
1 54665U 22166Z   23168.91668981  .00000013  00000+0  00000+0 0  9993
2 54665  87.9269 102.0811 0003136  91.6881 186.4969 13.23600512 27474
ONEWEB-0602             
1 54666U 22166AA  23168.74943091  .00000039  00000+0  62517-4 0  9997
2 54666  87.9341 102.1056 0002243  85.7099 274.4291 13.21824375 26839
ONEWEB-0603             
1 54667U 22166AB  23168.52654613  .00000035  00000+0  54165-4 0  9999
2 54667  87.9177 102.1664 0002633  87.7332 272.4103 13.21824775 26730
ONEWEB-0604             
1 54668U 22166AC  23168.51394374  .00000040  00000+0  64840-4 0  9991
2 54668  87.9346 102.1501 0002802  84.0398 276.1056 13.21825504 26693
ONEWEB-0605             
1 54669U 22166AD  23168.58333556  .00000009  00000+0 -96944-5 0  9991
2 54669  87.9199 102.1996 0002237  96.0273 264.1116 13.21824702 26777
ONEWEB-0606             
1 54670U 22166AE  23168.78631148 -.00112036  00000+0 -22772+0 0  9990
2 54670  87.9719 102.0918 0001998  34.7575 325.3697 13.34313624 26850
ONEWEB-0607             
1 54671U 22166AF  23168.34363268  .00000039  00000+0  62413-4 0  9996
2 54671  87.9330 102.1749 0002328  86.0349 274.1051 13.21827165 26772
ONEWEB-0608             
1 54672U 22166AG  23168.34993250  .00000006  00000+0 -17037-4 0  9994
2 54672  87.9185 102.2310 0002528  95.4788 264.6634 13.21828830 26781
ONEWEB-0610             
1 54673U 22166AH  23168.78519174  .00000032  00000+0  46058-4 0  9995
2 54673  87.9170 102.1452 0002529  93.6986 266.4437 13.21826699 26741
ONEWEB-0611             
1 54674U 22166AJ  23168.32470736  .00000151  00000+0  33363-3 0  9992
2 54674  87.9244 102.2005 0001978  64.5535 295.5804 13.21824262 26670
ONEWEB-0612             
1 54675U 22166AK  23168.33730190  .00000059  00000+0  11204-3 0  9994
2 54675  87.9236 102.1980 0002140  94.4918 265.6461 13.21823100 26668
ONEWEB-0615             
1 54676U 22166AL  23168.54548834 -.00000024  00000+0 -88503-4 0  9991
2 54676  87.9248 102.1553 0002407  82.6786 277.4622 13.21823191 26701
ONEWEB-0655             
1 54677U 22166AM  23168.82303890  .00000000  00000+0 -32253-4 0  9998
2 54677  87.9253 102.1055 0002170  84.5362 275.6019 13.21823863 26732
ONEWEB-0659             
1 54678U 22166AN  23168.53706649 -.00000004  00000+0 -42396-4 0  9990
2 54678  87.9246 102.2107 0001736  76.1832 283.9495 13.21827507 26784
ONEWEB-0685             
1 54679U 22166AP  23168.53916028  .00000060  00000+0  11374-3 0  9996
2 54679  87.9246 102.1591 0003091  86.1835 273.9652 13.21828148 26675
ONEWEB-0712             
1 54680U 22166AQ  23168.87454350 -.00149123  00000+0 -30411+0 0  9995
2 54680  87.8020  86.9095 0011386 351.5689   8.5259 13.34345531 27801
ONEWEB-0714             
1 54681U 22166AR  23168.54337021 -.00000062  00000+0 -18075-3 0  9999
2 54681  87.9158 102.1601 0002484  82.5243 277.6173 13.21825622 26796
ONEWEB-0532             
1 55140U 23004A   23168.91668981  .00000015  00000+0  00000+0 0  9996
2 55140  87.5473 223.9511 0000398  32.1196 263.0244 13.67785005 23183
ONEWEB-0533             
1 55141U 23004B   23168.86929210  .00000387  00000+0  11890-3 0  9991
2 55141  86.8396 220.8907 0004252  65.4157 294.7485 14.39163361 23389
ONEWEB-0541             
1 55142U 23004C   23168.71921491 -.00000015  00000+0 -63478-4 0  9999
2 55142  88.0384 238.4917 0001903 110.1534 249.9807 13.25751326 22303
ONEWEB-0543             
1 55143U 23004D   23168.89008057  .00001249  00000+0  22379-3 0  9995
2 55143  86.6275 219.1944 0004810  61.0107 299.1588 14.66023656 23491
ONEWEB-0544             
1 55144U 23004E   23168.89515744  .00001029  00000+0  18366-3 0  9999
2 55144  86.6299 219.1155 0003343  79.2798 280.8792 14.66000097 23509
ONEWEB-0560             
1 55145U 23004F   23168.89081860  .00001134  00000+0  20275-3 0  9996
2 55145  86.6315 219.1408 0002576  63.3722 296.7755 14.66025021 23507
ONEWEB-0565             
1 55146U 23004G   23168.86193657  .00003380  00000+0  61325-3 0  9998
2 55146  86.6295 219.0746 0003662  73.7566 286.4050 14.65988749 23505
ONEWEB-0567             
1 55147U 23004H   23168.87221946  .00000910  00000+0  16186-3 0  9994
2 55147  86.6295 219.0807 0005935  66.8472 293.3367 14.66018517 23504
ONEWEB-0569             
1 55148U 23004J   23168.85284250  .00001723  00000+0  31075-3 0  9997
2 55148  86.5345 218.9891 0005167  80.1949 279.9848 14.65953110 23494
ONEWEB-0570             
1 55149U 23004K   23168.62822826  .00001132  00000+0  20174-3 0  9992
2 55149  86.6271 219.1991 0003645  81.4085 278.7542 14.66188452 23467
ONEWEB-0571             
1 55150U 23004L   23168.88334684  .00001152  00000+0  20603-3 0  9991
2 55150  86.6317 219.1384 0004364  64.2233 295.9430 14.66023074 23509
ONEWEB-0572             
1 55151U 23004M   23168.91668981  .00000015  00000+0  00000+0 0  9998
2 55151  87.5358 223.9007 0003728  68.1392  41.3714 13.63351829 23182
ONEWEB-0573             
1 55152U 23004N   23168.85287945 -.00005511  00000+0 -10126-2 0  9990
2 55152  86.6285 219.1570 0004270  71.4090 288.7587 14.65987252 23496
ONEWEB-0588             
1 55153U 23004P   23168.89646287  .00000949  00000+0  16900-3 0  9998
2 55153  86.6279 219.2041 0006448  61.0713 299.1147 14.66010491 23491
ONEWEB-0598             
1 55154U 23004Q   23168.61198828  .00000026  00000+0  30404-4 0  9994
2 55154  87.9429 238.7819 0002061 113.1253 247.0100 13.24538023 22216
ONEWEB-0599             
1 55155U 23004R   23168.91668981  .00000015  00000+0  00000+0 0  9992
2 55155  87.5290 223.9408 0014599  52.4526 108.6160 13.66107796  1306
ONEWEB-0614             
1 55156U 23004S   23168.77072222 -.00001185  00000+0 -27912-2 0  9999
2 55156  87.9432 238.7420 0002138 107.4265 252.7104 13.24431937 22217
ONEWEB-0616             
1 55157U 23004T   23168.88235288 -.00209335  00000+0 -20238+0 0  9993
2 55157  87.3502 222.5820 0012945  53.0100 307.2250 13.81357336 23263
ONEWEB-0617             
1 55158U 23004U   23168.89591287 -.00000017  00000+0 -70823-4 0  9995
2 55158  87.9442 238.7270 0003088 110.5511 249.5956 13.24478074 22242
ONEWEB-0618             
1 55159U 23004V   23168.63145486  .00000176  00000+0  65202-4 0  9993
2 55159  86.9107 222.7463 0014674  37.3528 322.8681 14.26588561 23229
ONEWEB-0619             
1 55160U 23004W   23168.91668981  .00000016  00000+0  00000+0 0  9999
2 55160  87.5297 224.1294 0015572  62.3535 107.2658 13.69576891 23183
ONEWEB-0620             
1 55161U 23004X   23168.72521587 -.00000012  00000+0 -58894-4 0  9996
2 55161  87.9421 238.7602 0002081 103.6157 256.5210 13.24556140 22199
ONEWEB-0621             
1 55162U 23004Y   23168.63642316  .00000021  00000+0  12450-4 0  9997
2 55162  87.7035 240.5085 0012879  90.4884 269.7737 13.41780172 22015
ONEWEB-0622             
1 55163U 23004Z   23168.91668981  .00000013  00000+0  00000+0 0  9999
2 55163  87.9099 238.7056 0004131 127.6487 142.3501 13.16559811  1309
ONEWEB-0623             
1 55164U 23004AA  23168.88346939 -.00213688  00000+0 -23736+0 0  9999
2 55164  87.4991 224.1798 0015975  54.7577 305.5078 13.73089119 23180
ONEWEB-0624             
1 55165U 23004AB  23168.63434956  .00001308  00000+0  23441-3 0  9999
2 55165  86.6323 219.1738 0004802 117.4316 242.7387 14.66048301 23472
ONEWEB-0625             
1 55166U 23004AC  23168.85979348 -.00224075  00000+0 -23758+0 0  9990
2 55166  87.4494 224.2642 0012723  48.8166 311.4093 13.75981147 23160
ONEWEB-0626             
1 55167U 23004AD  23168.91668981 -.00846174  00000+0 -97680+0 0  9991
2 55167  87.4904 224.1955 0017425  71.9536 173.3030 13.72440732 23179
